CCSDS_OMM_VERS = 2.0
CREATION_DATE  = 
ORIGINATOR     = 

OBJECT_NAME    = STARLINK-35908
OBJECT_ID      = 2025-271Y
CENTER_NAME    = EARTH
REF_FRAME      = TEME
TIME_SYSTEM    = UTC
MEAN_ELEMENT_THEORY = SGP/SGP4

EPOCH          = 2025-12-18T18:43:29.288640
MEAN_MOTION    = 15.48774254
ECCENTRICITY   = .0001437
INCLINATION    = 53.1596
RA_OF_ASC_NODE = 158.2632
ARG_OF_PERICENTER = 60.2516
MEAN_ANOMALY   = 299.8636

EPHEMERIS_TYPE = 0
CLASSIFICATION_TYPE = U
NORAD_CAT_ID   = 66639
ELEMENT_SET_NO = 999
REV_AT_EPOCH   = 514
BSTAR          = -.48438706E-2
MEAN_MOTION_DOT = -.256344E-2
MEAN_MOTION_DDOT = 0

CCSDS_OMM_VERS = 2.0
CREATION_DATE  = 
ORIGINATOR     = 

OBJECT_NAME    = STARLINK-35921
OBJECT_ID      = 2025-271Z
CENTER_NAME    = EARTH
REF_FRAME      = TEME
TIME_SYSTEM    = UTC
MEAN_ELEMENT_THEORY = SGP/SGP4

EPOCH          = 2025-12-18T18:49:13.174464
MEAN_MOTION    = 15.41936023
ECCENTRICITY   = .00033205
INCLINATION    = 53.1595
RA_OF_ASC_NODE = 158.2879
ARG_OF_PERICENTER = 28.0904
MEAN_ANOMALY   = 332.0281

EPHEMERIS_TYPE = 0
CLASSIFICATION_TYPE = U
NORAD_CAT_ID   = 66640
ELEMENT_SET_NO = 999
REV_AT_EPOCH   = 514
BSTAR          = -.88998726E-2
MEAN_MOTION_DOT = -.367119E-2
MEAN_MOTION_DDOT = 0

CCSDS_OMM_VERS = 2.0
CREATION_DATE  = 
ORIGINATOR     = 

OBJECT_NAME    = STARLINK-35923
OBJECT_ID      = 2025-271AA
CENTER_NAME    = EARTH
REF_FRAME      = TEME
TIME_SYSTEM    = UTC
MEAN_ELEMENT_THEORY = SGP/SGP4

EPOCH          = 2025-12-18T21:46:42.243168
MEAN_MOTION    = 15.49275017
ECCENTRICITY   = .00010602
INCLINATION    = 53.1591
RA_OF_ASC_NODE = 157.6330
ARG_OF_PERICENTER = 102.4316
MEAN_ANOMALY   = 257.6812

EPHEMERIS_TYPE = 0
CLASSIFICATION_TYPE = U
NORAD_CAT_ID   = 66641
ELEMENT_SET_NO = 999
REV_AT_EPOCH   = 516
BSTAR          = .79935027E-3
MEAN_MOTION_DOT = .44207E-3
MEAN_MOTION_DDOT = 0

CCSDS_OMM_VERS = 2.0
CREATION_DATE  = 
ORIGINATOR     = 

OBJECT_NAME    = STARLINK-35926
OBJECT_ID      = 2025-271AB
CENTER_NAME    = EARTH
REF_FRAME      = TEME
TIME_SYSTEM    = UTC
MEAN_ELEMENT_THEORY = SGP/SGP4

EPOCH          = 2025-12-18T21:47:10.508064
MEAN_MOTION    = 15.49326349
ECCENTRICITY   = .00013302
INCLINATION    = 53.1589
RA_OF_ASC_NODE = 157.6354
ARG_OF_PERICENTER = 67.9754
MEAN_ANOMALY   = 292.1396

EPHEMERIS_TYPE = 0
CLASSIFICATION_TYPE = U
NORAD_CAT_ID   = 66642
ELEMENT_SET_NO = 999
REV_AT_EPOCH   = 512
BSTAR          = .13607483E-2
MEAN_MOTION_DOT = .76017E-3
MEAN_MOTION_DDOT = 0

CCSDS_OMM_VERS = 2.0
CREATION_DATE  = 
ORIGINATOR     = 

OBJECT_NAME    = STARLINK-35918
OBJECT_ID      = 2025-271AC
CENTER_NAME    = EARTH
REF_FRAME      = TEME
TIME_SYSTEM    = UTC
MEAN_ELEMENT_THEORY = SGP/SGP4

EPOCH          = 2025-12-18T20:15:17.256672
MEAN_MOTION    = 15.49355287
ECCENTRICITY   = .00012817
INCLINATION    = 53.1592
RA_OF_ASC_NODE = 157.9495
ARG_OF_PERICENTER = 86.0423
MEAN_ANOMALY   = 274.0733

EPHEMERIS_TYPE = 0
CLASSIFICATION_TYPE = U
NORAD_CAT_ID   = 66643
ELEMENT_SET_NO = 999
REV_AT_EPOCH   = 515
BSTAR          = .5250722E-3
MEAN_MOTION_DOT = .2891E-3
MEAN_MOTION_DDOT = 0

CCSDS_OMM_VERS = 2.0
CREATION_DATE  = 
ORIGINATOR     = 

OBJECT_NAME    = STARLINK-35938
OBJECT_ID      = 2025-271AD
CENTER_NAME    = EARTH
REF_FRAME      = TEME
TIME_SYSTEM    = UTC
MEAN_ELEMENT_THEORY = SGP/SGP4

EPOCH          = 2025-12-18T20:14:46.464576
MEAN_MOTION    = 15.49333178
ECCENTRICITY   = .00005997
INCLINATION    = 53.1591
RA_OF_ASC_NODE = 157.9473
ARG_OF_PERICENTER = 93.6054
MEAN_ANOMALY   = 266.5024

EPHEMERIS_TYPE = 0
CLASSIFICATION_TYPE = U
NORAD_CAT_ID   = 66644
ELEMENT_SET_NO = 999
REV_AT_EPOCH   = 515
BSTAR          = .13201346E-2
MEAN_MOTION_DOT = .73731E-3
MEAN_MOTION_DDOT = 0

CCSDS_OMM_VERS = 2.0
CREATION_DATE  = 
ORIGINATOR     = 

OBJECT_NAME    = SHENZHOU-22
OBJECT_ID      = 2025-272A
CENTER_NAME    = EARTH
REF_FRAME      = TEME
TIME_SYSTEM    = UTC
MEAN_ELEMENT_THEORY = SGP/SGP4

EPOCH          = 2025-12-18T22:15:16.316352
MEAN_MOTION    = 15.59443301
ECCENTRICITY   = .00076984
INCLINATION    = 41.4683
RA_OF_ASC_NODE = 339.1361
ARG_OF_PERICENTER = 85.4974
MEAN_ANOMALY   = 274.6744

EPHEMERIS_TYPE = 0
CLASSIFICATION_TYPE = U
NORAD_CAT_ID   = 66645
ELEMENT_SET_NO = 999
REV_AT_EPOCH   = 26357
BSTAR          = .26140428E-3
MEAN_MOTION_DOT = .2103E-3
MEAN_MOTION_DDOT = 0

CCSDS_OMM_VERS = 2.0
CREATION_DATE  = 
ORIGINATOR     = 

OBJECT_NAME    = COSMOS 2597 (RODNIK-S 22)
OBJECT_ID      = 2025-273A
CENTER_NAME    = EARTH
REF_FRAME      = TEME
TIME_SYSTEM    = UTC
MEAN_ELEMENT_THEORY = SGP/SGP4

EPOCH          = 2025-12-18T22:02:21.609888
MEAN_MOTION    = 12.41952008
ECCENTRICITY   = .00076454
INCLINATION    = 82.4992
RA_OF_ASC_NODE = 282.6124
ARG_OF_PERICENTER = 272.0822
MEAN_ANOMALY   = 87.9382

EPHEMERIS_TYPE = 0
CLASSIFICATION_TYPE = U
NORAD_CAT_ID   = 66647
ELEMENT_SET_NO = 999
REV_AT_EPOCH   = 290
BSTAR          = -.60147125E-4
MEAN_MOTION_DOT = .2E-7
MEAN_MOTION_DDOT = 0

CCSDS_OMM_VERS = 2.0
CREATION_DATE  = 
ORIGINATOR     = 

OBJECT_NAME    = COSMOS 2598 (RODNIK-S 23)
OBJECT_ID      = 2025-273B
CENTER_NAME    = EARTH
REF_FRAME      = TEME
TIME_SYSTEM    = UTC
MEAN_ELEMENT_THEORY = SGP/SGP4

EPOCH          = 2025-12-18T21:41:42.523296
MEAN_MOTION    = 12.43233471
ECCENTRICITY   = .00080638
INCLINATION    = 82.5031
RA_OF_ASC_NODE = 282.6146
ARG_OF_PERICENTER = 222.1300
MEAN_ANOMALY   = 137.9161

EPHEMERIS_TYPE = 0
CLASSIFICATION_TYPE = U
NORAD_CAT_ID   = 66648
ELEMENT_SET_NO = 999
REV_AT_EPOCH   = 290
BSTAR          = -.7302299E-5
MEAN_MOTION_DOT = .9E-7
MEAN_MOTION_DDOT = 0

CCSDS_OMM_VERS = 2.0
CREATION_DATE  = 
ORIGINATOR     = 

OBJECT_NAME    = COSMOS 2599 (RODNIK-S 24)
OBJECT_ID      = 2025-273C
CENTER_NAME    = EARTH
REF_FRAME      = TEME
TIME_SYSTEM    = UTC
MEAN_ELEMENT_THEORY = SGP/SGP4

EPOCH          = 2025-12-18T22:14:06.919008
MEAN_MOTION    = 12.41150968
ECCENTRICITY   = .00062754
INCLINATION    = 82.5048
RA_OF_ASC_NODE = 282.6337
ARG_OF_PERICENTER = 263.4082
MEAN_ANOMALY   = 96.6282

EPHEMERIS_TYPE = 0
CLASSIFICATION_TYPE = U
NORAD_CAT_ID   = 66649
ELEMENT_SET_NO = 999
REV_AT_EPOCH   = 290
BSTAR          = -.36568871E-4
MEAN_MOTION_DOT = .5E-7
MEAN_MOTION_DDOT = 0

CCSDS_OMM_VERS = 2.0
CREATION_DATE  = 
ORIGINATOR     = 

OBJECT_NAME    = BEE-1000
OBJECT_ID      = 2025-274A
CENTER_NAME    = EARTH
REF_FRAME      = TEME
TIME_SYSTEM    = UTC
MEAN_ELEMENT_THEORY = SGP/SGP4

EPOCH          = 2025-12-18T20:33:42.350688
MEAN_MOTION    = 14.91681400
ECCENTRICITY   = .00106541
INCLINATION    = 97.7400
RA_OF_ASC_NODE = 279.9321
ARG_OF_PERICENTER = 228.6345
MEAN_ANOMALY   = 131.3958

EPHEMERIS_TYPE = 0
CLASSIFICATION_TYPE = U
NORAD_CAT_ID   = 66650
ELEMENT_SET_NO = 999
REV_AT_EPOCH   = 331
BSTAR          = .11026298E-3
MEAN_MOTION_DOT = .1054E-4
MEAN_MOTION_DDOT = 0

CCSDS_OMM_VERS = 2.0
CREATION_DATE  = 
ORIGINATOR     = 

OBJECT_NAME    = 2025-274B
OBJECT_ID      = 2025-274B
CENTER_NAME    = EARTH
REF_FRAME      = TEME
TIME_SYSTEM    = UTC
MEAN_ELEMENT_THEORY = SGP/SGP4

EPOCH          = 2025-12-18T18:54:54.289440
MEAN_MOTION    = 14.91839474
ECCENTRICITY   = .00109219
INCLINATION    = 97.7394
RA_OF_ASC_NODE = 279.8668
ARG_OF_PERICENTER = 227.9760
MEAN_ANOMALY   = 132.0529

EPHEMERIS_TYPE = 0
CLASSIFICATION_TYPE = U
NORAD_CAT_ID   = 66651
ELEMENT_SET_NO = 999
REV_AT_EPOCH   = 330
BSTAR          = .23159462E-3
MEAN_MOTION_DOT = .2284E-4
MEAN_MOTION_DDOT = 0

