STARLINK-35908          
1 66639U 25271Y   25352.78020010 -.00256344  00000+0 -48439-2 0  9997
2 66639  53.1596 158.2632 0001437  60.2516 299.8636 15.48774254  5143
STARLINK-35921          
1 66640U 25271Z   25352.78418026 -.00367119  00000+0 -88999-2 0  9995
2 66640  53.1595 158.2879 0003320  28.0904 332.0281 15.41936023  5146
STARLINK-35923          
1 66641U 25271AA  25352.90743337  .00044207  00000+0  79935-3 0  9995
2 66641  53.1591 157.6330 0001060 102.4316 257.6812 15.49275017  5162
STARLINK-35926          
1 66642U 25271AB  25352.90776051  .00076017  00000+0  13607-2 0  9992
2 66642  53.1589 157.6354 0001330  67.9754 292.1396 15.49326349  5129
STARLINK-35918          
1 66643U 25271AC  25352.84394973  .00028910  00000+0  52507-3 0  9997
2 66643  53.1592 157.9495 0001281  86.0423 274.0733 15.49355287  5153
STARLINK-35938          
1 66644U 25271AD  25352.84359334  .00073731  00000+0  13201-2 0  9998
2 66644  53.1591 157.9473 0000599  93.6054 266.5024 15.49333178  5158
SHENZHOU-22             
1 66645U 25272A   25352.92727218  .00021030  00000+0  26140-3 0  9991
2 66645  41.4683 339.1361 0007698  85.4974 274.6744 15.59443301263570
COSMOS 2597 (RODNIK-S *)
1 66647U 25273A   25352.91830567  .00000002  00000+0 -60147-4 0  9998
2 66647  82.4992 282.6124 0007645 272.0822  87.9382 12.41952008  2905
COSMOS 2598 (RODNIK-S *)
1 66648U 25273B   25352.90396439  .00000009  00000+0 -73023-5 0  9998
2 66648  82.5031 282.6146 0008063 222.1300 137.9161 12.43233471  2906
COSMOS 2599 (RODNIK-S *)
1 66649U 25273C   25352.92646897  .00000005  00000+0 -36569-4 0  9996
2 66649  82.5048 282.6337 0006275 263.4082  96.6282 12.41150968  2907
BEE-1000                
1 66650U 25274A   25352.85674017  .00001054  00000+0  11026-3 0  9990
2 66650  97.7400 279.9321 0010654 228.6345 131.3958 14.91681400  3312
2025-274B               
1 66651U 25274B   25352.78812835  .00002284  00000+0  23159-3 0  9991
2 66651  97.7394 279.8668 0010921 227.9760 132.0529 14.91839474  3305
